LEMUR-2-GREENBERG       
1 42837U 17042N   26068.46200528  .00019778  00000+0  72539-3 0  9997
2 42837  97.3781 249.8007 0009157   4.0119 356.1192 15.27971352473146
STARLINK-31461          
1 59370U 24060Y   26068.52987329 -.00003497  00000+0 -11759-3 0  9993
2 59370  42.9991 249.9203 0000603 289.4421  70.6365 15.27585158110105
